STARLINK-36272          
1 68215U 26053J   26091.89578608  .00166844  00000+0  85197-3 0  9998
2 68215  97.2851 327.3294 0001098  76.2756 283.8635 15.80899831  3704
STARLINK-37014          
1 68216U 26053K   26091.89503646  .00096399  00000+0  49715-3 0  9992
2 68216  97.2850 327.3299 0001752  84.7593 275.3875 15.80873338  3727
STARLINK-37011          
1 68217U 26053L   26091.89428745  .00215060  00000+0  10913-2 0  9994
2 68217  97.2850 327.3317 0001430  93.2857 266.8575 15.80910465  3725
STARLINK-37108          
1 68218U 26053M   26091.89353638  .00099887  00000+0  51510-3 0  9999
2 68218  97.2850 327.3320 0001390  64.5036 295.6375 15.80865285  3722
STARLINK-37106          
1 68219U 26053N   26091.89277111  .00195577  00000+0  99634-3 0  9993
2 68219  97.2851 327.3332 0001943 106.1572 253.9911 15.80875322  3725
STARLINK-37030          
1 68220U 26053P   26091.89128116  .00158134  00000+0  80901-3 0  9990
2 68220  97.2852 327.3349 0001167  79.2839 280.8561 15.80881661  3723
STARLINK-37012          
1 68221U 26053Q   26091.89202968  .00281090  00000+0  14128-2 0  9994
2 68221  97.2850 327.3342 0001760  97.4766 262.6703 15.80950076  3728
STARLINK-37110          
1 68222U 26053R   26091.95383205  .00319440  00000+0  15989-2 0  9993
2 68222  97.2848 327.4031 0001149 110.4720 249.6672 15.80942136  3738
STARLINK-37025          
1 68223U 26053S   26091.88977933  .00223177  00000+0  11316-2 0  9994
2 68223  97.2851 327.3360 0001244  85.2827 274.8584 15.80906933  3726
STARLINK-36977          
1 68224U 26053T   26091.88902742  .00236625  00000+0  11980-2 0  9990
2 68224  97.2851 327.3368 0001116  90.8665 269.2731 15.80905790  3705
STARLINK-36960          
1 68225U 26053U   26091.88827535  .00223123  00000+0  11320-2 0  9994
2 68225  97.2852 327.3377 0001074 107.6555 252.4830 15.80894713  3701
STARLINK-37038          
1 68226U 26053V   26091.88677149  .00217314  00000+0  11028-2 0  9999
2 68226  97.2852 327.3395 0001027  96.2978 263.8407 15.80903169  3704
