CCSDS_OMM_VERS = 2.0
CREATION_DATE  = 
ORIGINATOR     = 

OBJECT_NAME    = STARLINK-36272
OBJECT_ID      = 2026-053J
CENTER_NAME    = EARTH
REF_FRAME      = TEME
TIME_SYSTEM    = UTC
MEAN_ELEMENT_THEORY = SGP/SGP4

EPOCH          = 2026-04-01T21:29:55.917312
MEAN_MOTION    = 15.80899831
ECCENTRICITY   = .00010982
INCLINATION    = 97.2851
RA_OF_ASC_NODE = 327.3294
ARG_OF_PERICENTER = 76.2756
MEAN_ANOMALY   = 283.8635

EPHEMERIS_TYPE = 0
CLASSIFICATION_TYPE = U
NORAD_CAT_ID   = 68215
ELEMENT_SET_NO = 999
REV_AT_EPOCH   = 370
BSTAR          = .85196557E-3
MEAN_MOTION_DOT = .166844E-2
MEAN_MOTION_DDOT = 0

CCSDS_OMM_VERS = 2.0
CREATION_DATE  = 
ORIGINATOR     = 

OBJECT_NAME    = STARLINK-37014
OBJECT_ID      = 2026-053K
CENTER_NAME    = EARTH
REF_FRAME      = TEME
TIME_SYSTEM    = UTC
MEAN_ELEMENT_THEORY = SGP/SGP4

EPOCH          = 2026-04-01T21:28:51.150144
MEAN_MOTION    = 15.80873338
ECCENTRICITY   = .00017522
INCLINATION    = 97.2850
RA_OF_ASC_NODE = 327.3299
ARG_OF_PERICENTER = 84.7593
MEAN_ANOMALY   = 275.3875

EPHEMERIS_TYPE = 0
CLASSIFICATION_TYPE = U
NORAD_CAT_ID   = 68216
ELEMENT_SET_NO = 999
REV_AT_EPOCH   = 372
BSTAR          = .4971503E-3
MEAN_MOTION_DOT = .96399E-3
MEAN_MOTION_DDOT = 0

CCSDS_OMM_VERS = 2.0
CREATION_DATE  = 
ORIGINATOR     = 

OBJECT_NAME    = STARLINK-37011
OBJECT_ID      = 2026-053L
CENTER_NAME    = EARTH
REF_FRAME      = TEME
TIME_SYSTEM    = UTC
MEAN_ELEMENT_THEORY = SGP/SGP4

EPOCH          = 2026-04-01T21:27:46.435680
MEAN_MOTION    = 15.80910465
ECCENTRICITY   = .00014303
INCLINATION    = 97.2850
RA_OF_ASC_NODE = 327.3317
ARG_OF_PERICENTER = 93.2857
MEAN_ANOMALY   = 266.8575

EPHEMERIS_TYPE = 0
CLASSIFICATION_TYPE = U
NORAD_CAT_ID   = 68217
ELEMENT_SET_NO = 999
REV_AT_EPOCH   = 372
BSTAR          = .10913343E-2
MEAN_MOTION_DOT = .21506E-2
MEAN_MOTION_DDOT = 0

CCSDS_OMM_VERS = 2.0
CREATION_DATE  = 
ORIGINATOR     = 

OBJECT_NAME    = STARLINK-37108
OBJECT_ID      = 2026-053M
CENTER_NAME    = EARTH
REF_FRAME      = TEME
TIME_SYSTEM    = UTC
MEAN_ELEMENT_THEORY = SGP/SGP4

EPOCH          = 2026-04-01T21:26:41.543232
MEAN_MOTION    = 15.80865285
ECCENTRICITY   = .00013903
INCLINATION    = 97.2850
RA_OF_ASC_NODE = 327.3320
ARG_OF_PERICENTER = 64.5036
MEAN_ANOMALY   = 295.6375

EPHEMERIS_TYPE = 0
CLASSIFICATION_TYPE = U
NORAD_CAT_ID   = 68218
ELEMENT_SET_NO = 999
REV_AT_EPOCH   = 372
BSTAR          = .51510403E-3
MEAN_MOTION_DOT = .99887E-3
MEAN_MOTION_DDOT = 0

CCSDS_OMM_VERS = 2.0
CREATION_DATE  = 
ORIGINATOR     = 

OBJECT_NAME    = STARLINK-37106
OBJECT_ID      = 2026-053N
CENTER_NAME    = EARTH
REF_FRAME      = TEME
TIME_SYSTEM    = UTC
MEAN_ELEMENT_THEORY = SGP/SGP4

EPOCH          = 2026-04-01T21:25:35.423904
MEAN_MOTION    = 15.80875322
ECCENTRICITY   = .0001943
INCLINATION    = 97.2851
RA_OF_ASC_NODE = 327.3332
ARG_OF_PERICENTER = 106.1572
MEAN_ANOMALY   = 253.9911

EPHEMERIS_TYPE = 0
CLASSIFICATION_TYPE = U
NORAD_CAT_ID   = 68219
ELEMENT_SET_NO = 999
REV_AT_EPOCH   = 372
BSTAR          = .996339E-3
MEAN_MOTION_DOT = .195577E-2
MEAN_MOTION_DDOT = 0

CCSDS_OMM_VERS = 2.0
CREATION_DATE  = 
ORIGINATOR     = 

OBJECT_NAME    = STARLINK-37030
OBJECT_ID      = 2026-053P
CENTER_NAME    = EARTH
REF_FRAME      = TEME
TIME_SYSTEM    = UTC
MEAN_ELEMENT_THEORY = SGP/SGP4

EPOCH          = 2026-04-01T21:23:26.692224
MEAN_MOTION    = 15.80881661
ECCENTRICITY   = .00011673
INCLINATION    = 97.2852
RA_OF_ASC_NODE = 327.3349
ARG_OF_PERICENTER = 79.2839
MEAN_ANOMALY   = 280.8561

EPHEMERIS_TYPE = 0
CLASSIFICATION_TYPE = U
NORAD_CAT_ID   = 68220
ELEMENT_SET_NO = 999
REV_AT_EPOCH   = 372
BSTAR          = .80900913E-3
MEAN_MOTION_DOT = .158134E-2
MEAN_MOTION_DDOT = 0

CCSDS_OMM_VERS = 2.0
CREATION_DATE  = 
ORIGINATOR     = 

OBJECT_NAME    = STARLINK-37012
OBJECT_ID      = 2026-053Q
CENTER_NAME    = EARTH
REF_FRAME      = TEME
TIME_SYSTEM    = UTC
MEAN_ELEMENT_THEORY = SGP/SGP4

EPOCH          = 2026-04-01T21:24:31.364352
MEAN_MOTION    = 15.80950076
ECCENTRICITY   = .00017601
INCLINATION    = 97.2850
RA_OF_ASC_NODE = 327.3342
ARG_OF_PERICENTER = 97.4766
MEAN_ANOMALY   = 262.6703

EPHEMERIS_TYPE = 0
CLASSIFICATION_TYPE = U
NORAD_CAT_ID   = 68221
ELEMENT_SET_NO = 999
REV_AT_EPOCH   = 372
BSTAR          = .14127755E-2
MEAN_MOTION_DOT = .28109E-2
MEAN_MOTION_DDOT = 0

CCSDS_OMM_VERS = 2.0
CREATION_DATE  = 
ORIGINATOR     = 

OBJECT_NAME    = STARLINK-37110
OBJECT_ID      = 2026-053R
CENTER_NAME    = EARTH
REF_FRAME      = TEME
TIME_SYSTEM    = UTC
MEAN_ELEMENT_THEORY = SGP/SGP4

EPOCH          = 2026-04-01T22:53:31.089120
MEAN_MOTION    = 15.80942136
ECCENTRICITY   = .00011499
INCLINATION    = 97.2848
RA_OF_ASC_NODE = 327.4031
ARG_OF_PERICENTER = 110.4720
MEAN_ANOMALY   = 249.6672

EPHEMERIS_TYPE = 0
CLASSIFICATION_TYPE = U
NORAD_CAT_ID   = 68222
ELEMENT_SET_NO = 999
REV_AT_EPOCH   = 373
BSTAR          = .159888E-2
MEAN_MOTION_DOT = .31944E-2
MEAN_MOTION_DDOT = 0

CCSDS_OMM_VERS = 2.0
CREATION_DATE  = 
ORIGINATOR     = 

OBJECT_NAME    = STARLINK-37025
OBJECT_ID      = 2026-053S
CENTER_NAME    = EARTH
REF_FRAME      = TEME
TIME_SYSTEM    = UTC
MEAN_ELEMENT_THEORY = SGP/SGP4

EPOCH          = 2026-04-01T21:21:16.934112
MEAN_MOTION    = 15.80906933
ECCENTRICITY   = .00012441
INCLINATION    = 97.2851
RA_OF_ASC_NODE = 327.3360
ARG_OF_PERICENTER = 85.2827
MEAN_ANOMALY   = 274.8584

EPHEMERIS_TYPE = 0
CLASSIFICATION_TYPE = U
NORAD_CAT_ID   = 68223
ELEMENT_SET_NO = 999
REV_AT_EPOCH   = 372
BSTAR          = .11316212E-2
MEAN_MOTION_DOT = .223177E-2
MEAN_MOTION_DDOT = 0

CCSDS_OMM_VERS = 2.0
CREATION_DATE  = 
ORIGINATOR     = 

OBJECT_NAME    = STARLINK-36977
OBJECT_ID      = 2026-053T
CENTER_NAME    = EARTH
REF_FRAME      = TEME
TIME_SYSTEM    = UTC
MEAN_ELEMENT_THEORY = SGP/SGP4

EPOCH          = 2026-04-01T21:20:11.969088
MEAN_MOTION    = 15.80905790
ECCENTRICITY   = .00011165
INCLINATION    = 97.2851
RA_OF_ASC_NODE = 327.3368
ARG_OF_PERICENTER = 90.8665
MEAN_ANOMALY   = 269.2731

EPHEMERIS_TYPE = 0
CLASSIFICATION_TYPE = U
NORAD_CAT_ID   = 68224
ELEMENT_SET_NO = 999
REV_AT_EPOCH   = 370
BSTAR          = .11979623E-2
MEAN_MOTION_DOT = .236625E-2
MEAN_MOTION_DDOT = 0

CCSDS_OMM_VERS = 2.0
CREATION_DATE  = 
ORIGINATOR     = 

OBJECT_NAME    = STARLINK-36960
OBJECT_ID      = 2026-053U
CENTER_NAME    = EARTH
REF_FRAME      = TEME
TIME_SYSTEM    = UTC
MEAN_ELEMENT_THEORY = SGP/SGP4

EPOCH          = 2026-04-01T21:19:06.990240
MEAN_MOTION    = 15.80894713
ECCENTRICITY   = .0001074
INCLINATION    = 97.2852
RA_OF_ASC_NODE = 327.3377
ARG_OF_PERICENTER = 107.6555
MEAN_ANOMALY   = 252.4830

EPHEMERIS_TYPE = 0
CLASSIFICATION_TYPE = U
NORAD_CAT_ID   = 68225
ELEMENT_SET_NO = 999
REV_AT_EPOCH   = 370
BSTAR          = .11319812E-2
MEAN_MOTION_DOT = .223123E-2
MEAN_MOTION_DDOT = 0

CCSDS_OMM_VERS = 2.0
CREATION_DATE  = 
ORIGINATOR     = 

OBJECT_NAME    = STARLINK-37038
OBJECT_ID      = 2026-053V
CENTER_NAME    = EARTH
REF_FRAME      = TEME
TIME_SYSTEM    = UTC
MEAN_ELEMENT_THEORY = SGP/SGP4

EPOCH          = 2026-04-01T21:16:57.056736
MEAN_MOTION    = 15.80903169
ECCENTRICITY   = .00010277
INCLINATION    = 97.2852
RA_OF_ASC_NODE = 327.3395
ARG_OF_PERICENTER = 96.2978
MEAN_ANOMALY   = 263.8407

EPHEMERIS_TYPE = 0
CLASSIFICATION_TYPE = U
NORAD_CAT_ID   = 68226
ELEMENT_SET_NO = 999
REV_AT_EPOCH   = 370
BSTAR          = .11028443E-2
MEAN_MOTION_DOT = .217314E-2
MEAN_MOTION_DDOT = 0

